{
    "links": {
        "self": "http://www.neowsapp.com/rest/v1/neo/3515659?api_key=iIulBulltgU6a56xZRHN4H3l9WmuAYTsLGpBGhQ2"
    },
    "id": "3515659",
    "neo_reference_id": "3515659",
    "name": "(2010 GP33)",
    "designation": "2010 GP33",
    "nasa_jpl_url": "http://ssd.jpl.nasa.gov/sbdb.cgi?sstr=3515659",
    "absolute_magnitude_h": 25.8,
    "estimated_diameter": {
        "kilometers": {
            "estimated_diameter_min": 0.0183888672,
            "estimated_diameter_max": 0.0411187571
        },
        "meters": {
            "estimated_diameter_min": 18.388867207,
            "estimated_diameter_max": 41.1187571041
        },
        "miles": {
            "estimated_diameter_min": 0.0114263088,
            "estimated_diameter_max": 0.0255500032
        },
        "feet": {
            "estimated_diameter_min": 60.3309310875,
            "estimated_diameter_max": 134.9040630575
        }
    },
    "is_potentially_hazardous_asteroid": false,
    "close_approach_data": [
        {
            "close_approach_date": "1946-07-31",
            "close_approach_date_full": "1946-Jul-31 15:20",
            "epoch_date_close_approach": -739096800000,
            "relative_velocity": {
                "kilometers_per_second": "20.8243902933",
                "kilometers_per_hour": "74967.8050558674",
                "miles_per_hour": "46582.0786470749"
            },
            "miss_distance": {
                "astronomical": "0.4947919456",
                "lunar": "192.4740668384",
                "kilometers": "74019821.154915872",
                "miles": "45993784.1055561536"
            },
            "orbiting_body": "Earth"
        },
        {
            "close_approach_date": "1948-04-13",
            "close_approach_date_full": "1948-Apr-13 06:32",
            "epoch_date_close_approach": -685387680000,
            "relative_velocity": {
                "kilometers_per_second": "8.1085629066",
                "kilometers_per_hour": "29190.8264636086",
                "miles_per_hour": "18138.0443656795"
            },
            "miss_distance": {
                "astronomical": "0.0393464916",
                "lunar": "15.3057852324",
                "kilometers": "5886151.335332892",
                "miles": "3657484.8399502296"
            },
            "orbiting_body": "Earth"
        },
        {
            "close_approach_date": "2010-04-22",
            "close_approach_date_full": "2010-Apr-22 23:37",
            "epoch_date_close_approach": 1271979420000,
            "relative_velocity": {
                "kilometers_per_second": "6.8970764629",
                "kilometers_per_hour": "24829.4752663432",
                "miles_per_hour": "15428.0703398009"
            },
            "miss_distance": {
                "astronomical": "0.0207892774",
                "lunar": "8.0870289086",
                "kilometers": "3110031.617879138",
                "miles": "1932484.0368745844"
            },
            "orbiting_body": "Earth"
        },
        {
            "close_approach_date": "2072-07-16",
            "close_approach_date_full": "2072-Jul-16 17:42",
            "epoch_date_close_approach": 3235916520000,
            "relative_velocity": {
                "kilometers_per_second": "12.657992561",
                "kilometers_per_hour": "45568.7732197742",
                "miles_per_hour": "28314.6635598092"
            },
            "miss_distance": {
                "astronomical": "0.2254464063",
                "lunar": "87.6986520507",
                "kilometers": "33726302.181634581",
                "miles": "20956552.4074199778"
            },
            "orbiting_body": "Earth"
        },
        {
            "close_approach_date": "2074-03-23",
            "close_approach_date_full": "2074-Mar-23 05:54",
            "epoch_date_close_approach": 3289010040000,
            "relative_velocity": {
                "kilometers_per_second": "16.8539889842",
                "kilometers_per_hour": "60674.3603431232",
                "miles_per_hour": "37700.687958759"
            },
            "miss_distance": {
                "astronomical": "0.3350025156",
                "lunar": "130.3159785684",
                "kilometers": "50115662.778401772",
                "miles": "31140428.8496255736"
            },
            "orbiting_body": "Earth"
        }
    ],
    "orbital_data": {
        "orbit_id": "13",
        "orbit_determination_date": "2017-04-06 08:57:50",
        "first_observation_date": "2010-04-11",
        "last_observation_date": "2010-04-20",
        "data_arc_in_days": 9,
        "observations_used": 55,
        "orbit_uncertainty": "7",
        "minimum_orbit_intersection": ".0171956",
        "jupiter_tisserand_invariant": "4.422",
        "epoch_osculation": "2459000.5",
        "eccentricity": ".3569058075585528",
        "semi_major_axis": "1.523231472525379",
        "inclination": "5.425890140164495",
        "ascending_node_longitude": "21.00985562277472",
        "orbital_period": "686.6687502580664",
        "perihelion_distance": ".9795813137251054",
        "perihelion_argument": "218.1574890493021",
        "aphelion_distance": "2.066881631325653",
        "perihelion_time": "2458767.101896709097",
        "mean_anomaly": "122.363682857487",
        "mean_motion": ".5242702538373902",
        "equinox": "J2000",
        "orbit_class": {
            "orbit_class_type": "APO",
            "orbit_class_description": "Near-Earth asteroid orbits which cross the Earth’s orbit similar to that of 1862 Apollo",
            "orbit_class_range": "a (semi-major axis) > 1.0 AU; q (perihelion) < 1.017 AU"
        }
    },
    "is_sentry_object": false
}